O3B FM20                
1 44112U 19020A   26087.85597447 -.00000029  00000+0  00000+0 0  9996
2 44112   0.0528   0.8112 0002697 355.2694   3.9126  5.00115487127551
O3B FM19                
1 44113U 19020B   26088.08298005 -.00000029  00000+0  00000+0 0  9991
2 44113   0.0579 352.9847 0004062  13.0204 353.9951  5.00115272127431
O3B FM17                
1 44114U 19020C   26087.96315084 -.00000029  00000+0  00000+0 0  9995
2 44114   0.0363 346.8044 0002671  10.9157   2.2740  5.00115428127513
O3B FM18                
1 44115U 19020D   26088.10934499 -.00000029  00000+0  00000+0 0  9990
2 44115   0.0531   0.9767 0002729   6.3261 352.6965  5.00115273127643
SALSAT                  
1 46495U 20068K   26087.98694119  .00010179  00000+0  36891-3 0  9991
2 46495  97.8861  86.2455 0008782 214.9729 145.0934 15.28549734303109
O3B MPOWER F1           
1 54755U 22174A   26088.12084014 -.00000029  00000+0  00000+0 0  9996
2 54755   0.0627 349.5108 0005553  36.3314 214.6654  5.00114848 61355
O3B MPOWER F2           
1 54756U 22174B   26087.95395605 -.00000029  00000+0  00000+0 0  9998
2 54756   0.0600 346.6653 0005954  19.4223 353.9149  5.00115541 61432
O3B MPOWER F4           
1 56367U 23059A   26088.01830213 -.00000029  00000+0  00000+0 0  9998
2 56367   0.0637   5.0421 0006951  16.8743 338.1086  5.00116079 54598
O3B MPOWER F3           
1 56368U 23059B   26088.05160932 -.00000029  00000+0  00000+0 0  9997
2 56368   0.0649   5.0836 0006574   6.4527 348.4742  5.00116681 50710
